{"type": "FeatureCollection", "features": [{"type": "Feature", "properties": {"norad_id": 2807, "name": "OPS 7218 (TRANSIT 16)", "group": "nnss", "lat": -53.85186096256003, "lon": 174.01725786091563, "alt_km": 1091.6708492849093, "timestamp": "2025-12-26T04:40:06.054922+00:00", "meta": {"OBJECT_NAME": "OPS 7218 (TRANSIT 16)", "OBJECT_ID": "1967-048A", "EPOCH": "2025-12-25T22:28:22.698912", "MEAN_MOTION": 13.50724911, "ECCENTRICITY": 0.00221375, "INCLINATION": 89.6734, "RA_OF_ASC_NODE": 353.5784, "ARG_OF_PERICENTER": 78.9761, "MEAN_ANOMALY": 340.2081, "EPHEMERIS_TYPE": 0, "CLASSIFICATION_TYPE": "U", "NORAD_CAT_ID": 2807, "ELEMENT_SET_NO": 999, "REV_AT_EPOCH": 88454, "BSTAR": 0.00013858417, "MEAN_MOTION_DOT": 1e-06, "MEAN_MOTION_DDOT": 0}, "tle": {"line1": "1 02807U 67048A   25359.93637383  .00000100  00000+0  13858-3 0  9996", "line2": "2 02807  89.6734 353.5784 0022137  78.9761 340.2081 13.50724911884544"}}, "geometry": {"type": "Point", "coordinates": [174.01725786091563, -53.85186096256003]}}, {"type": "Feature", "properties": {"norad_id": 2965, "name": "OPS 4947 (TRANSIT 17)", "group": "nnss", "lat": 69.82388264350901, "lon": 25.45574681196009, "alt_km": 1072.8058997598, "timestamp": "2025-12-26T04:40:06.054945+00:00", "meta": {"OBJECT_NAME": "OPS 4947 (TRANSIT 17)", "OBJECT_ID": "1967-092A", "EPOCH": "2025-12-25T14:41:33.017280", "MEAN_MOTION": 13.53456966, "ECCENTRICITY": 0.0047171, "INCLINATION": 89.2485, "RA_OF_ASC_NODE": 23.4532, "ARG_OF_PERICENTER": 196.3512, "MEAN_ANOMALY": 278.3032, "EPHEMERIS_TYPE": 0, "CLASSIFICATION_TYPE": "U", "NORAD_CAT_ID": 2965, "ELEMENT_SET_NO": 999, "REV_AT_EPOCH": 87271, "BSTAR": 0.00018696, "MEAN_MOTION_DOT": 1.38e-06, "MEAN_MOTION_DDOT": 0}, "tle": {"line1": "1 02965U 67092A   25359.61218770  .00000138  00000+0  18696-3 0  9996", "line2": "2 02965  89.2485  23.4532 0047171 196.3512 278.3032 13.53456966872714"}}, "geometry": {"type": "Point", "coordinates": [25.45574681196009, 69.82388264350901]}}, {"type": "Feature", "properties": {"norad_id": 3133, "name": "OPS 7034 (TRANSIT 18)", "group": "nnss", "lat": 51.825826487652286, "lon": 93.71357712658785, "alt_km": 1005.9220863631335, "timestamp": "2025-12-26T04:40:06.054959+00:00", "meta": {"OBJECT_NAME": "OPS 7034 (TRANSIT 18)", "OBJECT_ID": "1968-012A", "EPOCH": "2025-12-25T19:27:50.343840", "MEAN_MOTION": 13.51568761, "ECCENTRICITY": 0.00750295, "INCLINATION": 90.0285, "RA_OF_ASC_NODE": 273.6762, "ARG_OF_PERICENTER": 131.6104, "MEAN_ANOMALY": 291.5955, "EPHEMERIS_TYPE": 0, "CLASSIFICATION_TYPE": "U", "NORAD_CAT_ID": 3133, "ELEMENT_SET_NO": 999, "REV_AT_EPOCH": 57095, "BSTAR": 0.00020971101, "MEAN_MOTION_DOT": 1.49e-06, "MEAN_MOTION_DDOT": 0}, "tle": {"line1": "1 03133U 68012A   25359.81099935  .00000149  00000+0  20971-3 0  9990", "line2": "2 03133  90.0285 273.6762 0075029 131.6104 291.5955 13.51568761570953"}}, "geometry": {"type": "Point", "coordinates": [93.71357712658785, 51.825826487652286]}}, {"type": "Feature", "properties": {"norad_id": 4507, "name": "NNSS 19 (TRANSIT 19)", "group": "nnss", "lat": 87.01150716778838, "lon": -125.54716124279607, "alt_km": 1183.3475935000733, "timestamp": "2025-12-26T04:40:06.054971+00:00", "meta": {"OBJECT_NAME": "NNSS 19 (TRANSIT 19)", "OBJECT_ID": "1970-067A", "EPOCH": "2025-12-25T17:33:54.764640", "MEAN_MOTION": 13.51317732, "ECCENTRICITY": 0.01702182, "INCLINATION": 90.0047, "RA_OF_ASC_NODE": 234.5427, "ARG_OF_PERICENTER": 255.346, "MEAN_ANOMALY": 102.8768, "EPHEMERIS_TYPE": 0, "CLASSIFICATION_TYPE": "U", "NORAD_CAT_ID": 4507, "ELEMENT_SET_NO": 999, "REV_AT_EPOCH": 72397, "BSTAR": 0.00012963941, "MEAN_MOTION_DOT": 1e-06, "MEAN_MOTION_DDOT": 0}, "tle": {"line1": "1 04507U 70067A   25359.73188385  .00000100  00000+0  12964-3 0  9998", "line2": "2 04507  90.0047 234.5427 0170218 255.3460 102.8768 13.51317732723972"}}, "geometry": {"type": "Point", "coordinates": [-125.54716124279607, 87.01150716778838]}}, {"type": "Feature", "properties": {"norad_id": 6909, "name": "NNSS 20 (TRANSIT 20)", "group": "nnss", "lat": 53.78045478288358, "lon": -104.95049152808602, "alt_km": 878.3287147693118, "timestamp": "2025-12-26T04:40:06.054982+00:00", "meta": {"OBJECT_NAME": "NNSS 20 (TRANSIT 20)", "OBJECT_ID": "1973-081A", "EPOCH": "2025-12-25T17:54:30.672576", "MEAN_MOTION": 13.71441138, "ECCENTRICITY": 0.01560911, "INCLINATION": 89.8559, "RA_OF_ASC_NODE": 254.8594, "ARG_OF_PERICENTER": 39.7617, "MEAN_ANOMALY": 321.4863, "EPHEMERIS_TYPE": 0, "CLASSIFICATION_TYPE": "U", "NORAD_CAT_ID": 6909, "ELEMENT_SET_NO": 999, "REV_AT_EPOCH": 80539, "BSTAR": 0.0002786728, "MEAN_MOTION_DOT": 2.84e-06, "MEAN_MOTION_DDOT": 0}, "tle": {"line1": "1 06909U 73081A   25359.74618834  .00000284  00000+0  27867-3 0  9994", "line2": "2 06909  89.8559 254.8594 0156091  39.7617 321.4863 13.71441138805397"}}, "geometry": {"type": "Point", "coordinates": [-104.95049152808602, 53.78045478288358]}}, {"type": "Feature", "properties": {"norad_id": 10457, "name": "TRANSAT", "group": "nnss", "lat": -22.39321402472547, "lon": 77.97498692873891, "alt_km": 1101.2023770285796, "timestamp": "2025-12-26T04:40:06.054993+00:00", "meta": {"OBJECT_NAME": "TRANSAT", "OBJECT_ID": "1977-106A", "EPOCH": "2025-12-25T18:39:52.189632", "MEAN_MOTION": 13.48945596, "ECCENTRICITY": 0.0026569, "INCLINATION": 89.6475, "RA_OF_ASC_NODE": 78.1351, "ARG_OF_PERICENTER": 152.5856, "MEAN_ANOMALY": 322.1693, "EPHEMERIS_TYPE": 0, "CLASSIFICATION_TYPE": "U", "NORAD_CAT_ID": 10457, "ELEMENT_SET_NO": 999, "REV_AT_EPOCH": 36919, "BSTAR": 0.0001191127, "MEAN_MOTION_DOT": 8.5e-07, "MEAN_MOTION_DDOT": 0}, "tle": {"line1": "1 10457U 77106A   25359.77768738  .00000085  00000+0  11911-3 0  9993", "line2": "2 10457  89.6475  78.1351 0026569 152.5856 322.1693 13.48945596369191"}}, "geometry": {"type": "Point", "coordinates": [77.97498692873891, -22.39321402472547]}}, {"type": "Feature", "properties": {"norad_id": 12458, "name": "NOVA 1", "group": "nnss", "lat": 77.81479959318641, "lon": 91.87843324924033, "alt_km": 1153.2646463708834, "timestamp": "2025-12-26T04:40:06.055004+00:00", "meta": {"OBJECT_NAME": "NOVA 1", "OBJECT_ID": "1981-044A", "EPOCH": "2025-12-25T19:47:26.127744", "MEAN_MOTION": 13.23279888, "ECCENTRICITY": 0.00157075, "INCLINATION": 89.8525, "RA_OF_ASC_NODE": 91.2002, "ARG_OF_PERICENTER": 71.8269, "MEAN_ANOMALY": 44.8452, "EPHEMERIS_TYPE": 0, "CLASSIFICATION_TYPE": "U", "NORAD_CAT_ID": 12458, "ELEMENT_SET_NO": 999, "REV_AT_EPOCH": 15359, "BSTAR": 0.00013430863, "MEAN_MOTION_DOT": 6.6e-07, "MEAN_MOTION_DDOT": 0}, "tle": {"line1": "1 12458U 81044A   25359.82460796  .00000066  00000+0  13431-3 0  9999", "line2": "2 12458  89.8525  91.2002 0015707  71.8269  44.8452 13.23279888153597"}}, "geometry": {"type": "Point", "coordinates": [91.87843324924033, 77.81479959318641]}}, {"type": "Feature", "properties": {"norad_id": 15362, "name": "NOVA 3", "group": "nnss", "lat": -60.835459414422374, "lon": 80.91107215587678, "alt_km": 1157.9135201821173, "timestamp": "2025-12-26T04:40:06.055014+00:00", "meta": {"OBJECT_NAME": "NOVA 3", "OBJECT_ID": "1984-110A", "EPOCH": "2025-12-25T18:40:43.211424", "MEAN_MOTION": 13.23046286, "ECCENTRICITY": 0.00298541, "INCLINATION": 90.1217, "RA_OF_ASC_NODE": 80.688, "ARG_OF_PERICENTER": 294.3065, "MEAN_ANOMALY": 183.5086, "EPHEMERIS_TYPE": 0, "CLASSIFICATION_TYPE": "U", "NORAD_CAT_ID": 15362, "ELEMENT_SET_NO": 999, "REV_AT_EPOCH": 98871, "BSTAR": 0.00014425029, "MEAN_MOTION_DOT": 6.9e-07, "MEAN_MOTION_DDOT": 0}, "tle": {"line1": "1 15362U 84110A   25359.77827791  .00000069  00000+0  14425-3 0  9996", "line2": "2 15362  90.1217  80.6880 0029854 294.3065 183.5086 13.23046286988715"}}, "geometry": {"type": "Point", "coordinates": [80.91107215587678, -60.835459414422374]}}, {"type": "Feature", "properties": {"norad_id": 15935, "name": "OSCAR 30", "group": "nnss", "lat": -71.34928048642207, "lon": 100.5570933625903, "alt_km": 1188.2733218448566, "timestamp": "2025-12-26T04:40:06.055025+00:00", "meta": {"OBJECT_NAME": "OSCAR 30", "OBJECT_ID": "1985-066A", "EPOCH": "2025-12-25T20:37:30.509760", "MEAN_MOTION": 13.36080597, "ECCENTRICITY": 0.01688008, "INCLINATION": 90.1653, "RA_OF_ASC_NODE": 100.0616, "ARG_OF_PERICENTER": 47.223, "MEAN_ANOMALY": 72.1814, "EPHEMERIS_TYPE": 0, "CLASSIFICATION_TYPE": "U", "NORAD_CAT_ID": 15935, "ELEMENT_SET_NO": 999, "REV_AT_EPOCH": 96628, "BSTAR": 0.00020088881, "MEAN_MOTION_DOT": 1.21e-06, "MEAN_MOTION_DDOT": 0}, "tle": {"line1": "1 15935U 85066A   25359.85938090  .00000121  00000+0  20089-3 0  9999", "line2": "2 15935  90.1653 100.0616 0168800  47.2230  72.1814 13.36080597966280"}}, "geometry": {"type": "Point", "coordinates": [100.5570933625903, -71.34928048642207]}}, {"type": "Feature", "properties": {"norad_id": 15936, "name": "OSCAR 24", "group": "nnss", "lat": -2.8546727151355955, "lon": 92.5523415320164, "alt_km": 1053.9927232371201, "timestamp": "2025-12-26T04:40:06.055035+00:00", "meta": {"OBJECT_NAME": "OSCAR 24", "OBJECT_ID": "1985-066B", "EPOCH": "2025-12-25T18:26:58.709184", "MEAN_MOTION": 13.35937682, "ECCENTRICITY": 0.01699978, "INCLINATION": 90.1791, "RA_OF_ASC_NODE": 92.5359, "ARG_OF_PERICENTER": 53.9382, "MEAN_ANOMALY": 58.384, "EPHEMERIS_TYPE": 0, "CLASSIFICATION_TYPE": "U", "NORAD_CAT_ID": 15936, "ELEMENT_SET_NO": 999, "REV_AT_EPOCH": 96817, "BSTAR": 0.00016315366, "MEAN_MOTION_DOT": 1e-06, "MEAN_MOTION_DDOT": 0}, "tle": {"line1": "1 15936U 85066B   25359.76873506  .00000100  00000+0  16315-3 0  9994", "line2": "2 15936  90.1791  92.5359 0169997  53.9382  58.3840 13.35937682968173"}}, "geometry": {"type": "Point", "coordinates": [92.5523415320164, -2.8546727151355955]}}]}